IRIDIUM 136             
1 42962U 17061H   23306.61086170  .00000491  00000+0  16839-3 0  9994
2 42962  86.3970  65.4230 0001862  87.1698 272.9711 14.34214836317583
